ORBCOMM FM24            
1 25478U 98053D   24199.11390671  .00002000  00000+0  73101-3 0  9990
2 25478  45.0089  55.4536 0001109   7.5751 352.5113 14.35949906349521
ORBCOMM FM25            
1 25479U 98053E   24198.87242549  .00002503  00000+0  90305-3 0  9996
2 25479  45.0081  54.8438 0003637  12.4939 347.5999 14.35933372349503
ORBCOMM FM26            
1 25480U 98053F   24198.83640454  .00001773  00000+0  66159-3 0  9999
2 25480  45.0083  49.4271 0005763  31.8822 328.2374 14.35336103349434
ORBCOMM FM27            
1 25481U 98053G   24199.06983978  .00002256  00000+0  81868-3 0  9998
2 25481  45.0064  54.1724 0000703 128.0508 232.0403 14.35923217349500
ORBCOMM FM28            
1 25482U 98053H   24198.75811597  .00002155  00000+0  77772-3 0  9998
2 25482  45.0070 353.8934 0002968  74.7181 285.3994 14.36335871350095
ORBCOMM FM30            
1 25980U 99065A   24198.44398094  .00001240  00000+0  47636-3 0  9993
2 25980  45.0306 236.8757 0004307 144.2548 215.8589 14.35467597286177
ORBCOMM FM31            
1 25981U 99065B   24198.54890942  .00001151  00000+0  44559-3 0  9996
2 25981  45.0218 230.0263 0002813 196.3461 163.7296 14.35459455285742
ORBCOMM FM32            
1 25982U 99065C   24198.64677784  .00001241  00000+0  48599-3 0  9993
2 25982  45.0150 243.8458 0005015 179.6606 180.4245 14.34465453286383
