<?xml version="1.0" encoding="UTF-8"?>
<ndm xmlns:xsi="http://www.w3.org/2001/XMLSchema-instance" xsi:noNamespaceSchemaLocation="https://sanaregistry.org/r/ndmxml_unqualified/ndmxml-2.0.0-master-2.0.xsd">
<omm id="CCSDS_OMM_VERS" version="2.0">
<header><CREATION_DATE/><ORIGINATOR/></header><body><segment><metadata><OBJECT_NAME>ORBCOMM FM24</OBJECT_NAME><OBJECT_ID>1998-053D</OBJECT_ID><CENTER_NAME>EARTH</CENTER_NAME><REF_FRAME>TEME</REF_FRAME><TIME_SYSTEM>UTC</TIME_SYSTEM><MEAN_ELEMENT_THEORY>SGP4</MEAN_ELEMENT_THEORY></metadata><data><meanElements><EPOCH>2024-07-17T02:44:01.539744</EPOCH><MEAN_MOTION>14.35949906</MEAN_MOTION><ECCENTRICITY>.0001109</ECCENTRICITY><INCLINATION>45.0089</INCLINATION><RA_OF_ASC_NODE>55.4536</RA_OF_ASC_NODE><ARG_OF_PERICENTER>7.5751</ARG_OF_PERICENTER><MEAN_ANOMALY>352.5113</MEAN_ANOMALY></meanElements><tleParameters><EPHEMERIS_TYPE>0</EPHEMERIS_TYPE><CLASSIFICATION_TYPE>U</CLASSIFICATION_TYPE><NORAD_CAT_ID>25478</NORAD_CAT_ID><ELEMENT_SET_NO>999</ELEMENT_SET_NO><REV_AT_EPOCH>34952</REV_AT_EPOCH><BSTAR>.73101E-3</BSTAR><MEAN_MOTION_DOT>.2E-4</MEAN_MOTION_DOT><MEAN_MOTION_DDOT>0</MEAN_MOTION_DDOT></tleParameters></data></segment></body></omm>
<omm id="CCSDS_OMM_VERS" version="2.0">
<header><CREATION_DATE/><ORIGINATOR/></header><body><segment><metadata><OBJECT_NAME>ORBCOMM FM25</OBJECT_NAME><OBJECT_ID>1998-053E</OBJECT_ID><CENTER_NAME>EARTH</CENTER_NAME><REF_FRAME>TEME</REF_FRAME><TIME_SYSTEM>UTC</TIME_SYSTEM><MEAN_ELEMENT_THEORY>SGP4</MEAN_ELEMENT_THEORY></metadata><data><meanElements><EPOCH>2024-07-16T20:56:17.562336</EPOCH><MEAN_MOTION>14.35933372</MEAN_MOTION><ECCENTRICITY>.0003637</ECCENTRICITY><INCLINATION>45.0081</INCLINATION><RA_OF_ASC_NODE>54.8438</RA_OF_ASC_NODE><ARG_OF_PERICENTER>12.4939</ARG_OF_PERICENTER><MEAN_ANOMALY>347.5999</MEAN_ANOMALY></meanElements><tleParameters><EPHEMERIS_TYPE>0</EPHEMERIS_TYPE><CLASSIFICATION_TYPE>U</CLASSIFICATION_TYPE><NORAD_CAT_ID>25479</NORAD_CAT_ID><ELEMENT_SET_NO>999</ELEMENT_SET_NO><REV_AT_EPOCH>34950</REV_AT_EPOCH><BSTAR>.90305E-3</BSTAR><MEAN_MOTION_DOT>.2503E-4</MEAN_MOTION_DOT><MEAN_MOTION_DDOT>0</MEAN_MOTION_DDOT></tleParameters></data></segment></body></omm>
<omm id="CCSDS_OMM_VERS" version="2.0">
<header><CREATION_DATE/><ORIGINATOR/></header><body><segment><metadata><OBJECT_NAME>ORBCOMM FM26</OBJECT_NAME><OBJECT_ID>1998-053F</OBJECT_ID><CENTER_NAME>EARTH</CENTER_NAME><REF_FRAME>TEME</REF_FRAME><TIME_SYSTEM>UTC</TIME_SYSTEM><MEAN_ELEMENT_THEORY>SGP4</MEAN_ELEMENT_THEORY></metadata><data><meanElements><EPOCH>2024-07-16T20:04:25.352256</EPOCH><MEAN_MOTION>14.35336103</MEAN_MOTION><ECCENTRICITY>.0005763</ECCENTRICITY><INCLINATION>45.0083</INCLINATION><RA_OF_ASC_NODE>49.4271</RA_OF_ASC_NODE><ARG_OF_PERICENTER>31.8822</ARG_OF_PERICENTER><MEAN_ANOMALY>328.2374</MEAN_ANOMALY></meanElements><tleParameters><EPHEMERIS_TYPE>0</EPHEMERIS_TYPE><CLASSIFICATION_TYPE>U</CLASSIFICATION_TYPE><NORAD_CAT_ID>25480</NORAD_CAT_ID><ELEMENT_SET_NO>999</ELEMENT_SET_NO><REV_AT_EPOCH>34943</REV_AT_EPOCH><BSTAR>.66159E-3</BSTAR><MEAN_MOTION_DOT>.1773E-4</MEAN_MOTION_DOT><MEAN_MOTION_DDOT>0</MEAN_MOTION_DDOT></tleParameters></data></segment></body></omm>
<omm id="CCSDS_OMM_VERS" version="2.0">
<header><CREATION_DATE/><ORIGINATOR/></header><body><segment><metadata><OBJECT_NAME>ORBCOMM FM27</OBJECT_NAME><OBJECT_ID>1998-053G</OBJECT_ID><CENTER_NAME>EARTH</CENTER_NAME><REF_FRAME>TEME</REF_FRAME><TIME_SYSTEM>UTC</TIME_SYSTEM><MEAN_ELEMENT_THEORY>SGP4</MEAN_ELEMENT_THEORY></metadata><data><meanElements><EPOCH>2024-07-17T01:40:34.156992</EPOCH><MEAN_MOTION>14.35923217</MEAN_MOTION><ECCENTRICITY>.0000703</ECCENTRICITY><INCLINATION>45.0064</INCLINATION><RA_OF_ASC_NODE>54.1724</RA_OF_ASC_NODE><ARG_OF_PERICENTER>128.0508</ARG_OF_PERICENTER><MEAN_ANOMALY>232.0403</MEAN_ANOMALY></meanElements><tleParameters><EPHEMERIS_TYPE>0</EPHEMERIS_TYPE><CLASSIFICATION_TYPE>U</CLASSIFICATION_TYPE><NORAD_CAT_ID>25481</NORAD_CAT_ID><ELEMENT_SET_NO>999</ELEMENT_SET_NO><REV_AT_EPOCH>34950</REV_AT_EPOCH><BSTAR>.81868E-3</BSTAR><MEAN_MOTION_DOT>.2256E-4</MEAN_MOTION_DOT><MEAN_MOTION_DDOT>0</MEAN_MOTION_DDOT></tleParameters></data></segment></body></omm>
<omm id="CCSDS_OMM_VERS" version="2.0">
<header><CREATION_DATE/><ORIGINATOR/></header><body><segment><metadata><OBJECT_NAME>ORBCOMM FM28</OBJECT_NAME><OBJECT_ID>1998-053H</OBJECT_ID><CENTER_NAME>EARTH</CENTER_NAME><REF_FRAME>TEME</REF_FRAME><TIME_SYSTEM>UTC</TIME_SYSTEM><MEAN_ELEMENT_THEORY>SGP4</MEAN_ELEMENT_THEORY></metadata><data><meanElements><EPOCH>2024-07-16T18:11:41.219808</EPOCH><MEAN_MOTION>14.36335871</MEAN_MOTION><ECCENTRICITY>.0002968</ECCENTRICITY><INCLINATION>45.0070</INCLINATION><RA_OF_ASC_NODE>353.8934</RA_OF_ASC_NODE><ARG_OF_PERICENTER>74.7181</ARG_OF_PERICENTER><MEAN_ANOMALY>285.3994</MEAN_ANOMALY></meanElements><tleParameters><EPHEMERIS_TYPE>0</EPHEMERIS_TYPE><CLASSIFICATION_TYPE>U</CLASSIFICATION_TYPE><NORAD_CAT_ID>25482</NORAD_CAT_ID><ELEMENT_SET_NO>999</ELEMENT_SET_NO><REV_AT_EPOCH>35009</REV_AT_EPOCH><BSTAR>.77772E-3</BSTAR><MEAN_MOTION_DOT>.2155E-4</MEAN_MOTION_DOT><MEAN_MOTION_DDOT>0</MEAN_MOTION_DDOT></tleParameters></data></segment></body></omm>
<omm id="CCSDS_OMM_VERS" version="2.0">
<header><CREATION_DATE/><ORIGINATOR/></header><body><segment><metadata><OBJECT_NAME>ORBCOMM FM30</OBJECT_NAME><OBJECT_ID>1999-065A</OBJECT_ID><CENTER_NAME>EARTH</CENTER_NAME><REF_FRAME>TEME</REF_FRAME><TIME_SYSTEM>UTC</TIME_SYSTEM><MEAN_ELEMENT_THEORY>SGP4</MEAN_ELEMENT_THEORY></metadata><data><meanElements><EPOCH>2024-07-16T10:39:19.953216</EPOCH><MEAN_MOTION>14.35467597</MEAN_MOTION><ECCENTRICITY>.0004307</ECCENTRICITY><INCLINATION>45.0306</INCLINATION><RA_OF_ASC_NODE>236.8757</RA_OF_ASC_NODE><ARG_OF_PERICENTER>144.2548</ARG_OF_PERICENTER><MEAN_ANOMALY>215.8589</MEAN_ANOMALY></meanElements><tleParameters><EPHEMERIS_TYPE>0</EPHEMERIS_TYPE><CLASSIFICATION_TYPE>U</CLASSIFICATION_TYPE><NORAD_CAT_ID>25980</NORAD_CAT_ID><ELEMENT_SET_NO>999</ELEMENT_SET_NO><REV_AT_EPOCH>28617</REV_AT_EPOCH><BSTAR>.47636E-3</BSTAR><MEAN_MOTION_DOT>.124E-4</MEAN_MOTION_DOT><MEAN_MOTION_DDOT>0</MEAN_MOTION_DDOT></tleParameters></data></segment></body></omm>
<omm id="CCSDS_OMM_VERS" version="2.0">
<header><CREATION_DATE/><ORIGINATOR/></header><body><segment><metadata><OBJECT_NAME>ORBCOMM FM31</OBJECT_NAME><OBJECT_ID>1999-065B</OBJECT_ID><CENTER_NAME>EARTH</CENTER_NAME><REF_FRAME>TEME</REF_FRAME><TIME_SYSTEM>UTC</TIME_SYSTEM><MEAN_ELEMENT_THEORY>SGP4</MEAN_ELEMENT_THEORY></metadata><data><meanElements><EPOCH>2024-07-16T13:10:25.773888</EPOCH><MEAN_MOTION>14.35459455</MEAN_MOTION><ECCENTRICITY>.0002813</ECCENTRICITY><INCLINATION>45.0218</INCLINATION><RA_OF_ASC_NODE>230.0263</RA_OF_ASC_NODE><ARG_OF_PERICENTER>196.3461</ARG_OF_PERICENTER><MEAN_ANOMALY>163.7296</MEAN_ANOMALY></meanElements><tleParameters><EPHEMERIS_TYPE>0</EPHEMERIS_TYPE><CLASSIFICATION_TYPE>U</CLASSIFICATION_TYPE><NORAD_CAT_ID>25981</NORAD_CAT_ID><ELEMENT_SET_NO>999</ELEMENT_SET_NO><REV_AT_EPOCH>28574</REV_AT_EPOCH><BSTAR>.44559E-3</BSTAR><MEAN_MOTION_DOT>.1151E-4</MEAN_MOTION_DOT><MEAN_MOTION_DDOT>0</MEAN_MOTION_DDOT></tleParameters></data></segment></body></omm>
<omm id="CCSDS_OMM_VERS" version="2.0">
<header><CREATION_DATE/><ORIGINATOR/></header><body><segment><metadata><OBJECT_NAME>ORBCOMM FM32</OBJECT_NAME><OBJECT_ID>1999-065C</OBJECT_ID><CENTER_NAME>EARTH</CENTER_NAME><REF_FRAME>TEME</REF_FRAME><TIME_SYSTEM>UTC</TIME_SYSTEM><MEAN_ELEMENT_THEORY>SGP4</MEAN_ELEMENT_THEORY></metadata><data><meanElements><EPOCH>2024-07-16T15:31:21.605376</EPOCH><MEAN_MOTION>14.34465453</MEAN_MOTION><ECCENTRICITY>.0005015</ECCENTRICITY><INCLINATION>45.0150</INCLINATION><RA_OF_ASC_NODE>243.8458</RA_OF_ASC_NODE><ARG_OF_PERICENTER>179.6606</ARG_OF_PERICENTER><MEAN_ANOMALY>180.4245</MEAN_ANOMALY></meanElements><tleParameters><EPHEMERIS_TYPE>0</EPHEMERIS_TYPE><CLASSIFICATION_TYPE>U</CLASSIFICATION_TYPE><NORAD_CAT_ID>25982</NORAD_CAT_ID><ELEMENT_SET_NO>999</ELEMENT_SET_NO><REV_AT_EPOCH>28638</REV_AT_EPOCH><BSTAR>.48599E-3</BSTAR><MEAN_MOTION_DOT>.1241E-4</MEAN_MOTION_DOT><MEAN_MOTION_DDOT>0</MEAN_MOTION_DDOT></tleParameters></data></segment></body></omm>

</ndm>
